[
    {
        "CCSDS_OMM_VERS": "3.0",
        "COMMENT": "GENERATED VIA SPACE-TRACK.ORG API",
        "CREATION_DATE": "2025-03-02T18:08:23",
        "ORIGINATOR": "18 SPCS",
        "OBJECT_NAME": "BD-2-G7",
        "OBJECT_ID": "2016-037A",
        "CENTER_NAME": "EARTH",
        "REF_FRAME": "TEME",
        "TIME_SYSTEM": "UTC",
        "MEAN_ELEMENT_THEORY": "SGP4",
        "EPOCH": "2025-03-02T13:11:52.218816",
        "MEAN_MOTION": "1.00273859",
        "ECCENTRICITY": "0.00102610",
        "INCLINATION": "1.5037",
        "RA_OF_ASC_NODE": "67.3487",
        "ARG_OF_PERICENTER": "332.2655",
        "MEAN_ANOMALY": "69.4635",
        "EPHEMERIS_TYPE": "0",
        "CLASSIFICATION_TYPE": "U",
        "NORAD_CAT_ID": "41586",
        "ELEMENT_SET_NO": "999",
        "REV_AT_EPOCH": "216",
        "BSTAR": "0.00000000000000",
        "MEAN_MOTION_DOT": "-0.00000356",
        "MEAN_MOTION_DDOT": "0.0000000000000",
        "SEMIMAJOR_AXIS": "42164.151",
        "PERIOD": "1436.067",
        "APOAPSIS": "35829.280",
        "PERIAPSIS": "35742.751",
        "OBJECT_TYPE": "PAYLOAD",
        "RCS_SIZE": "LARGE",
        "COUNTRY_CODE": "PRC",
        "LAUNCH_DATE": "2016-06-12",
        "SITE": "XSC",
        "DECAY_DATE": null,
        "FILE": "4657142",
        "GP_ID": "282086067",
        "TLE_LINE0": "0 BD-2-G7",
        "TLE_LINE1": "1 41586U 16037A   25061.54990994 -.00000356  00000-0  00000-0 0  9999",
        "TLE_LINE2": "2 41586   1.5037  67.3487 0010261 332.2655  69.4635  1.00273859  2160"
    }
]